[{"OBJECT_NAME":"UWE-3","OBJECT_ID":"2013-066AG","EPOCH":"2026-03-15T03:31:17.230944","MEAN_MOTION":14.96248663,"ECCENTRICITY":0.00478429,"INCLINATION":97.8595,"RA_OF_ASC_NODE":29.6991,"ARG_OF_PERICENTER":273.3394,"MEAN_ANOMALY":86.2355,"EPHEMERIS_TYPE":0,"CLASSIFICATION_TYPE":"U","NORAD_CAT_ID":39446,"ELEMENT_SET_NO":999,"REV_AT_EPOCH":66351,"BSTAR":0.00056127854,"MEAN_MOTION_DOT":6.423e-5,"MEAN_MOTION_DDOT":0},{"OBJECT_NAME":"UNISAT-6","OBJECT_ID":"2014-033C","EPOCH":"2026-03-15T06:08:43.462176","MEAN_MOTION":14.87681392,"ECCENTRICITY":0.00456907,"INCLINATION":97.7731,"RA_OF_ASC_NODE":228.724,"ARG_OF_PERICENTER":19.732,"MEAN_ANOMALY":340.5651,"EPHEMERIS_TYPE":0,"CLASSIFICATION_TYPE":"U","NORAD_CAT_ID":40012,"ELEMENT_SET_NO":999,"REV_AT_EPOCH":63219,"BSTAR":0.00037440884,"MEAN_MOTION_DOT":3.419e-5,"MEAN_MOTION_DDOT":0},{"OBJECT_NAME":"DUCHIFAT-1","OBJECT_ID":"2014-033M","EPOCH":"2026-03-15T04:28:43.248288","MEAN_MOTION":15.5056043,"ECCENTRICITY":0.00055835,"INCLINATION":98.0632,"RA_OF_ASC_NODE":121.2643,"ARG_OF_PERICENTER":69.3235,"MEAN_ANOMALY":290.8613,"EPHEMERIS_TYPE":0,"CLASSIFICATION_TYPE":"U","NORAD_CAT_ID":40021,"ELEMENT_SET_NO":999,"REV_AT_EPOCH":64112,"BSTAR":0.0011092261,"MEAN_MOTION_DOT":0.0006376,"MEAN_MOTION_DDOT":0},{"OBJECT_NAME":"QB50P1","OBJECT_ID":"2014-033R","EPOCH":"2026-03-15T06:03:13.776192","MEAN_MOTION":15.16649317,"ECCENTRICITY":0.00090177,"INCLINATION":98.1003,"RA_OF_ASC_NODE":78.9114,"ARG_OF_PERICENTER":174.9373,"MEAN_ANOMALY":185.1951,"EPHEMERIS_TYPE":0,"CLASSIFICATION_TYPE":"U","NORAD_CAT_ID":40025,"ELEMENT_SET_NO":999,"REV_AT_EPOCH":63878,"BSTAR":0.0005593243,"MEAN_MOTION_DOT":0.00010886,"MEAN_MOTION_DDOT":0},{"OBJECT_NAME":"LILACSAT-2","OBJECT_ID":"2015-049K","EPOCH":"2026-03-15T07:58:13.332000","MEAN_MOTION":15.48257794,"ECCENTRICITY":0.00061376,"INCLINATION":97.4801,"RA_OF_ASC_NODE":107.7531,"ARG_OF_PERICENTER":220.3158,"MEAN_ANOMALY":139.7637,"EPHEMERIS_TYPE":0,"CLASSIFICATION_TYPE":"U","NORAD_CAT_ID":40908,"ELEMENT_SET_NO":999,"REV_AT_EPOCH":58121,"BSTAR":0.000353575,"MEAN_MOTION_DOT":0.00018579,"MEAN_MOTION_DDOT":0},{"OBJECT_NAME":"FOX-1A (AO-85)","OBJECT_ID":"2015-058D","EPOCH":"2026-03-15T02:16:23.563488","MEAN_MOTION":14.90405222,"ECCENTRICITY":0.0128744,"INCLINATION":64.7752,"RA_OF_ASC_NODE":211.2603,"ARG_OF_PERICENTER":93.7443,"MEAN_ANOMALY":267.84,"EPHEMERIS_TYPE":0,"CLASSIFICATION_TYPE":"U","NORAD_CAT_ID":40967,"ELEMENT_SET_NO":999,"REV_AT_EPOCH":9954,"BSTAR":0.00039300733,"MEAN_MOTION_DOT":4.322e-5,"MEAN_MOTION_DDOT":0},{"OBJECT_NAME":"CAS-2T & KS-1Q","OBJECT_ID":"2016-066G","EPOCH":"2026-03-15T04:18:04.701312","MEAN_MOTION":14.44487009,"ECCENTRICITY":0.03434398,"INCLINATION":98.3876,"RA_OF_ASC_NODE":150.9686,"ARG_OF_PERICENTER":54.8907,"MEAN_ANOMALY":308.3972,"EPHEMERIS_TYPE":0,"CLASSIFICATION_TYPE":"U","NORAD_CAT_ID":41847,"ELEMENT_SET_NO":999,"REV_AT_EPOCH":49122,"BSTAR":0.00019237589,"MEAN_MOTION_DOT":1.317e-5,"MEAN_MOTION_DDOT":0},{"OBJECT_NAME":"RADFXSAT (FOX-1B)","OBJECT_ID":"2017-073E","EPOCH":"2026-03-14T15:04:46.257024","MEAN_MOTION":15.10996825,"ECCENTRICITY":0.01537908,"INCLINATION":97.4861,"RA_OF_ASC_NODE":302.8209,"ARG_OF_PERICENTER":295.0415,"MEAN_ANOMALY":63.4915,"EPHEMERIS_TYPE":0,"CLASSIFICATION_TYPE":"U","NORAD_CAT_ID":43017,"ELEMENT_SET_NO":999,"REV_AT_EPOCH":45110,"BSTAR":0.00061706333,"MEAN_MOTION_DOT":0.00013646,"MEAN_MOTION_DDOT":0},{"OBJECT_NAME":"DIWATA-2B","OBJECT_ID":"2018-084H","EPOCH":"2026-03-15T07:49:08.202432","MEAN_MOTION":14.99992076,"ECCENTRICITY":0.00123916,"INCLINATION":98.104,"RA_OF_ASC_NODE":266.5938,"ARG_OF_PERICENTER":109.9179,"MEAN_ANOMALY":250.3379,"EPHEMERIS_TYPE":0,"CLASSIFICATION_TYPE":"U","NORAD_CAT_ID":43678,"ELEMENT_SET_NO":999,"REV_AT_EPOCH":40214,"BSTAR":0.00019042897,"MEAN_MOTION_DOT":2.306e-5,"MEAN_MOTION_DDOT":0},{"OBJECT_NAME":"ES'HAIL 2","OBJECT_ID":"2018-090A","EPOCH":"2026-03-15T06:52:44.381856","MEAN_MOTION":1.00272277,"ECCENTRICITY":0.00010785,"INCLINATION":0.0123,"RA_OF_ASC_NODE":121.0161,"ARG_OF_PERICENTER":231.5061,"MEAN_ANOMALY":309.3554,"EPHEMERIS_TYPE":0,"CLASSIFICATION_TYPE":"U","NORAD_CAT_ID":43700,"ELEMENT_SET_NO":999,"REV_AT_EPOCH":2673,"BSTAR":0,"MEAN_MOTION_DOT":1.43e-6,"MEAN_MOTION_DDOT":0},{"OBJECT_NAME":"FOX-1CLIFF (AO-95)","OBJECT_ID":"2018-099N","EPOCH":"2026-03-15T03:45:44.347392","MEAN_MOTION":15.24575893,"ECCENTRICITY":0.00078027,"INCLINATION":97.4505,"RA_OF_ASC_NODE":134.8488,"ARG_OF_PERICENTER":326.428,"MEAN_ANOMALY":33.6462,"EPHEMERIS_TYPE":0,"CLASSIFICATION_TYPE":"U","NORAD_CAT_ID":43770,"ELEMENT_SET_NO":999,"REV_AT_EPOCH":39888,"BSTAR":0.00061803012,"MEAN_MOTION_DOT":0.00015185,"MEAN_MOTION_DDOT":0},{"OBJECT_NAME":"ITASAT","OBJECT_ID":"2018-099AE","EPOCH":"2026-03-15T01:10:28.941312","MEAN_MOTION":15.17773296,"ECCENTRICITY":0.00117293,"INCLINATION":97.4161,"RA_OF_ASC_NODE":127.4688,"ARG_OF_PERICENTER":326.5481,"MEAN_ANOMALY":33.5011,"EPHEMERIS_TYPE":0,"CLASSIFICATION_TYPE":"U","NORAD_CAT_ID":43786,"ELEMENT_SET_NO":999,"REV_AT_EPOCH":39862,"BSTAR":0.00045372436,"MEAN_MOTION_DOT":9.119e-5,"MEAN_MOTION_DDOT":0},{"OBJECT_NAME":"JY1SAT (JO-97)","OBJECT_ID":"2018-099AX","EPOCH":"2026-03-14T23:34:43.082976","MEAN_MOTION":15.30525068,"ECCENTRICITY":0.00050212,"INCLINATION":97.4249,"RA_OF_ASC_NODE":136.6593,"ARG_OF_PERICENTER":233.9097,"MEAN_ANOMALY":126.1679,"EPHEMERIS_TYPE":0,"CLASSIFICATION_TYPE":"U","NORAD_CAT_ID":43803,"ELEMENT_SET_NO":999,"REV_AT_EPOCH":39920,"BSTAR":0.00076926639,"MEAN_MOTION_DOT":0.00022678,"MEAN_MOTION_DDOT":0},{"OBJECT_NAME":"UWE-4","OBJECT_ID":"2018-111E","EPOCH":"2026-03-15T06:17:51.404064","MEAN_MOTION":15.40404364,"ECCENTRICITY":0.00065412,"INCLINATION":97.5851,"RA_OF_ASC_NODE":358.7534,"ARG_OF_PERICENTER":316.2258,"MEAN_ANOMALY":43.8468,"EPHEMERIS_TYPE":0,"CLASSIFICATION_TYPE":"U","NORAD_CAT_ID":43880,"ELEMENT_SET_NO":999,"REV_AT_EPOCH":39629,"BSTAR":0.0009191927,"MEAN_MOTION_DOT":0.00037236,"MEAN_MOTION_DDOT":0},{"OBJECT_NAME":"TIANYAN 01","OBJECT_ID":"2019-093C","EPOCH":"2026-03-15T06:33:29.798784","MEAN_MOTION":14.86352333,"ECCENTRICITY":0.00145367,"INCLINATION":97.7602,"RA_OF_ASC_NODE":148.7788,"ARG_OF_PERICENTER":40.7466,"MEAN_ANOMALY":319.4834,"EPHEMERIS_TYPE":0,"CLASSIFICATION_TYPE":"U","NORAD_CAT_ID":44881,"ELEMENT_SET_NO":999,"REV_AT_EPOCH":33746,"BSTAR":7.1946101e-5,"MEAN_MOTION_DOT":5.82e-6,"MEAN_MOTION_DDOT":0},{"OBJECT_NAME":"RS-44 & BREEZE-KM R/B","OBJECT_ID":"2019-096E","EPOCH":"2026-03-15T06:24:30.732768","MEAN_MOTION":12.79747544,"ECCENTRICITY":0.02176938,"INCLINATION":82.5213,"RA_OF_ASC_NODE":42.1072,"ARG_OF_PERICENTER":4.2999,"MEAN_ANOMALY":355.9905,"EPHEMERIS_TYPE":0,"CLASSIFICATION_TYPE":"U","NORAD_CAT_ID":44909,"ELEMENT_SET_NO":999,"REV_AT_EPOCH":29033,"BSTAR":2.7334212e-5,"MEAN_MOTION_DOT":1.8e-7,"MEAN_MOTION_DDOT":0}]
