UWE-3                   
1 39446U 13066AG  26074.14672721  .00006423  00000+0  56128-3 0  9990
2 39446  97.8595  29.6991 0047842 273.3394  86.2355 14.96248663663512
UNISAT-6                
1 40012U 14033C   26074.25605859  .00003419  00000+0  37441-3 0  9995
2 40012  97.7731 228.7240 0045690  19.7320 340.5651 14.87681392632198
DUCHIFAT-1              
1 40021U 14033M   26074.18661167  .00063760  00000+0  11092-2 0  9999
2 40021  98.0632 121.2643 0005583  69.3235 290.8613 15.50560430641127
QB50P1                  
1 40025U 14033R   26074.25224278  .00010886  00000+0  55932-3 0  9992
2 40025  98.1003  78.9114 0009017 174.9373 185.1951 15.16649317638780
LILACSAT-2              
1 40908U 15049K   26074.33209875  .00018579  00000+0  35358-3 0  9992
2 40908  97.4801 107.7531 0006137 220.3158 139.7637 15.48257794581219
FOX-1A (AO-85)          
1 40967U 15058D   26074.09471717  .00004322  00000+0  39301-3 0  9999
2 40967  64.7752 211.2603 0128744  93.7443 267.8400 14.90405222 99543
CAS-2T & KS-1Q          
1 41847U 16066G   26074.17922108  .00001317  00000+0  19238-3 0  9999
2 41847  98.3876 150.9686 0343439  54.8907 308.3972 14.44487009491222
RADFXSAT (FOX-1B)       
1 43017U 17073E   26073.62831316  .00013646  00000+0  61706-3 0  9993
2 43017  97.4861 302.8209 0153790 295.0415  63.4915 15.10996825451102
DIWATA-2B               
1 43678U 18084H   26074.32578938  .00002306  00000+0  19043-3 0  9993
2 43678  98.1040 266.5938 0012391 109.9179 250.3379 14.99992076402149
ES'HAIL 2               
1 43700U 18090A   26074.28662479  .00000143  00000+0  00000+0 0  9991
2 43700   0.0123 121.0161 0001078 231.5061 309.3554  1.00272277 26733
FOX-1CLIFF (AO-95)      
1 43770U 18099N   26074.15676328  .00015185  00000+0  61803-3 0  9995
2 43770  97.4505 134.8488 0007802 326.4280  33.6462 15.24575893398880
ITASAT                  
1 43786U 18099AE  26074.04894608  .00009119  00000+0  45372-3 0  9996
2 43786  97.4161 127.4688 0011729 326.5481  33.5011 15.17773296398622
JY1SAT (JO-97)          
1 43803U 18099AX  26073.98244309  .00022678  00000+0  76927-3 0  9990
2 43803  97.4249 136.6593 0005021 233.9097 126.1679 15.30525068399209
UWE-4                   
1 43880U 18111E   26074.26240051  .00037236  00000+0  91919-3 0  9996
2 43880  97.5851 358.7534 0006541 316.2258  43.8468 15.40404364396291
TIANYAN 01              
1 44881U 19093C   26074.27326156  .00000582  00000+0  71946-4 0  9993
2 44881  97.7602 148.7788 0014536  40.7466 319.4834 14.86352333337460
RS-44 & BREEZE-KM R/B   
1 44909U 19096E   26074.26702237  .00000018  00000+0  27334-4 0  9990
2 44909  82.5213  42.1072 0217693   4.2999 355.9905 12.79747544290339
